,Name,Country,Country Name,Continent,Latitude,Longitude,Temperature (F),Humidity (%),Cloudiness (%),Wind Speed (mph)
0,Andilamena,MG,Madagascar,Africa,-17.02,48.58,59.13,84,51,7.18
1,Marawi,PH,Philippines,Asia,8,124.29,75,85,96,5.99
2,San Patricio,MX,Mexico,North America,19.22,-104.7,91.4,70,75,17.22
3,Puerto Ayora,EC,Ecuador,South America,-0.74,-90.35,69.01,82,72,8.99
4,Busselton,AU,Australia,Oceania,-33.65,115.33,44.78,80,39,8.28
5,Bambous Virieux,MU,Mauritius,Africa,-20.34,57.76,68.47,73,20,3.36
6,Wad Medani,SD,Sudan,Africa,14.4,33.52,84.6,58,4,6.71
7,Rikitea,PF,French Polynesia,Oceania,-23.12,-134.97,72.77,74,100,18.32
8,Salalah,OM,Oman,Asia,17.02,54.09,80.6,88,75,3.36
9,Hambantota,LK,Sri Lanka,Asia,6.12,81.12,80.15,78,93,15.68
10,Cabo San Lucas,MX,Mexico,North America,22.89,-109.91,89.8,52,20,17.22
11,Mataura,NZ,New Zealand,Oceania,-46.19,168.86,54,86,69,8.01
12,SÃ¸rland,NO,Norway,Europe,67.67,12.69,46.09,62,100,3.89
13,Atuona,PF,French Polynesia,Oceania,-9.8,-139.03,78.46,72,93,19.22
14,New Norfolk,AU,Australia,Oceania,-42.78,147.06,46.35,85,78,7.25
15,ConstituciÃ³n,CL,Chile,South America,-35.33,-72.42,57.96,71,98,12.71
16,Ulcinj,ME,Montenegro,Europe,41.93,19.22,62.6,93,75,9.17
17,Flagstaff,US,United States of America,North America,35.2,-111.65,72.12,27,20,16.11
18,Punta Arenas,CL,Chile,South America,-53.15,-70.92,48.2,57,75,16.11
19,Butaritari,KI,Kiribati,Oceania,3.07,172.79,83.17,77,9,18.92
20,Norman Wells,CA,Canada,North America,65.28,-126.83,55.4,50,40,6.93
21,Kushiro,JP,Japan,Asia,42.98,144.37,55.13,87,15,8.3
22,Ushuaia,AR,Argentina,South America,-54.8,-68.3,44.6,80,75,21.92
23,Hilo,US,United States of America,North America,19.73,-155.09,75.9,69,90,5.82
24,Point Fortin,TT,Trinidad and Tobago,North America,10.18,-61.68,83.5,83,99,7.34
25,Sibolga,ID,Indonesia,Asia,1.74,98.78,76.64,84,99,2.57
26,Tuktoyaktuk,CA,Canada,North America,69.45,-133.04,39.2,80,90,3.36
27,Cape Town,ZA,South Africa,Africa,-33.93,18.42,57.31,87,10,14.99
28,Iqaluit,CA,Canada,North America,63.75,-68.51,33.8,86,90,10.29
29,George Town,MY,Malaysia,Asia,5.41,100.34,77,94,20,2.24
30,Elko,US,United States of America,North America,41,-115.5,80.08,7,25,13
31,Ostrovnoy,RU,Russian Federation,Europe,68.05,39.51,43.21,85,68,12.08
32,Upernavik,GL,Greenland,North America,72.79,-56.15,27.3,87,65,4.65
33,Siavonga,ZM,Zambia,Africa,-16.54,28.71,76.08,44,0,7.38
34,Qaanaaq,GL,Greenland,North America,77.48,-69.36,13.57,80,0,7.87
35,Vaini,TO,Tonga,Oceania,-21.2,-175.2,73.4,83,75,8.05
36,Kapaa,US,United States of America,North America,22.08,-159.32,83.14,62,20,13.87
37,Castro,BR,Brazil,South America,-24.79,-50.01,53.91,80,30,9.62
38,Rawson,AR,Argentina,South America,-43.3,-65.1,60.73,33,0,7.94
39,East London,ZA,South Africa,Africa,-33.02,27.91,60.42,70,2,6.78
40,Salem,IN,India,Asia,11.65,78.17,72.14,84,34,1.36
41,Albany,US,United States of America,North America,42.6,-73.97,65.71,31,0,5.99
42,Bredasdorp,ZA,South Africa,Africa,-34.53,20.04,48.2,93,48,4.7
43,Aleksandrovskoye,RU,Russian Federation,Europe,44.71,43,58.1,82,0,8.95
44,Loreto,MX,Mexico,North America,22.27,-101.97,77.7,21,22,13.42
45,Jonava,LT,Lithuania,Europe,55.08,24.28,51.8,81,0,2.24
46,Airai,TL,Timor-Leste,Asia,-8.93,125.41,59.58,93,0,2.53
47,Ribeira Grande,PT,Portugal,Europe,38.52,-28.7,68.86,83,90,9.82
48,Barela,IN,India,Asia,23.1,80.05,74.7,92,100,7.96
49,Hammerfest,NO,Norway,Europe,70.66,23.68,44.6,75,75,26.4
50,Svetlograd,RU,Russian Federation,Europe,45.34,42.85,55.18,76,0,8.95
51,KlaksvÃ­k,FO,Faroe Islands,Europe,62.23,-6.59,41,86,99,5.82
52,Trairi,BR,Brazil,South America,-3.28,-39.27,77.85,77,0,12.86
53,Ubari,LY,Libyan Arab Jamahiriya,Africa,26.59,12.78,76.89,27,0,6.69
54,Biak,ID,Indonesia,Asia,-0.91,122.88,76.69,81,99,6.33
55,Esperance,AU,Australia,Oceania,-33.87,121.9,44.6,100,40,6.93
56,Hithadhoo,MV,Maldives,Asia,-0.6,73.08,81.81,68,33,7.81
57,Yellowknife,CA,Canada,North America,62.46,-114.35,53.15,81,40,18.34
58,Bafra,TR,Turkey,Europe,41.57,35.91,60.8,87,40,4.7
59,Saint-Philippe,RE,Reunion,Africa,-21.36,55.77,61.63,63,35,5.82
60,Hobart,AU,Australia,Oceania,-42.88,147.33,49.98,66,40,10.29
61,San QuintÃ­n,MX,Mexico,North America,30.48,-115.95,79.68,50,0,13.82
62,Pevek,RU,Russian Federation,Europe,69.7,170.31,38.5,91,100,21
63,Bluff,NZ,New Zealand,Oceania,-46.6,168.33,54,86,46,8.01
64,Dikson,RU,Russian Federation,Europe,73.51,80.55,40.95,87,76,11.48
65,Saldanha,ZA,South Africa,Africa,-33.01,17.94,51.8,71,0,1.12
66,Talnakh,RU,Russian Federation,Europe,69.49,88.4,51.8,87,75,17.9
67,Tasiilaq,GL,Greenland,North America,65.61,-37.64,30.2,68,100,11.41
68,Meulaboh,ID,Indonesia,Asia,4.14,96.13,76.84,88,92,4.16
69,Mildura,AU,Australia,Oceania,-34.2,142.15,50.49,81,0,8.05
70,Ulaangom,MN,Mongolia,Asia,49.98,92.07,48.36,59,76,1.7
71,Jamestown,US,United States of America,North America,42.1,-79.24,63.16,51,1,10.29
72,Brandon,US,United States of America,North America,27.94,-82.29,82.69,61,90,9.17
73,YerbogachÃ«n,RU,Russian Federation,Europe,61.28,108.01,40.77,92,0,4.45
74,Port Alfred,ZA,South Africa,Africa,-33.59,26.89,58.08,74,0,4.63
75,Narsaq,GL,Greenland,North America,60.92,-46.05,37.4,44,0,5.82
76,Nouadhibou,MR,Mauritania,Africa,20.93,-17.03,77,78,0,14.99
77,Saskylakh,RU,Russian Federation,Europe,71.92,114.08,42.12,73,0,14.94
78,GuÃ­a de Isora,ES,Spain,Europe,28.21,-16.78,75.76,83,100,9.17
79,SalinÃ³polis,BR,Brazil,South America,-0.61,-47.36,80.2,77,75,13.82
80,Raja,SS,South Sudan,Africa,8.46,25.68,70.65,95,83,3.4
81,Olafsvik,IS,Iceland,Europe,64.89,-23.71,41.65,73,100,21.68
82,KhÄsh,IR,Islamic Republic of Iran,Asia,28.22,61.22,58.73,35,0,6.6
83,Taoudenni,ML,Mali,Africa,22.68,-3.98,98.56,10,0,8.23
84,Paamiut,GL,Greenland,North America,61.99,-49.67,37.06,81,0,15.23
85,Dolisie,CG,Congo,Africa,-4.2,12.67,72.25,81,100,9.31
86,Bairiki Village,KI,Kiribati,Oceania,1.33,172.98,84.2,70,20,16.11
87,Mar del Plata,AR,Argentina,South America,-38,-57.56,62.56,29,100,10.29
88,Vila Velha,BR,Brazil,South America,-20.33,-40.29,77,83,75,12.75
89,Lukovetskiy,RU,Russian Federation,Europe,64.3,41.92,50,61,40,17.9
90,Hong Kong,HK,Hong Kong,Asia,22.29,114.16,81.77,81,85,11.68
91,Guerrero Negro,MX,Mexico,North America,27.98,-114.06,87.24,36,0,13.8
92,Kirkconnel,GB,United Kingdom of Great Britain and Northern Ireland,Europe,55.39,-4,53.19,93,40,12.75
93,Atikokan,CA,Canada,North America,48.76,-91.62,73.18,35,9,6.58
94,Lebu,CL,Chile,South America,-37.62,-73.65,51.06,74,33,18.77
95,VardÃ¸,NO,Norway,Europe,70.37,31.11,42.8,93,75,5.82
96,Longyearbyen,SJ,Svalbard and Jan Mayen,Europe,78.22,15.64,35.6,64,40,10.29
97,Severo-Kuril'sk,RU,Russian Federation,Europe,50.68,156.12,49.8,79,39,11.54
98,Hermanus,ZA,South Africa,Africa,-34.42,19.23,54,89,33,4
99,Hastings,GB,United Kingdom of Great Britain and Northern Ireland,Europe,50.86,0.57,61.7,90,18,3
100,Davila,PH,Philippines,Asia,18.47,120.58,78.8,94,20,3.36
101,Las Palmas,ES,Spain,Europe,28.42,-14.01,78.8,57,79,9.17
102,Omsukchan,RU,Russian Federation,Europe,62.53,155.8,35.01,77,0,3.04
103,Faya,SA,Saudi Arabia,Asia,18.39,42.45,70.7,21,2,6.24
104,Nakamura,JP,Japan,Asia,32.98,132.93,69.3,88,100,1.74
105,Port Hedland,AU,Australia,Oceania,-20.32,118.57,64.4,31,0,5.82
106,Treia,IT,Italy,Europe,43.31,13.31,65.95,81,57,5.7
107,Port Hardy,CA,Canada,North America,50.7,-127.42,59,77,90,18.34
108,Imeni Poliny Osipenko,RU,Russian Federation,Europe,52.42,136.49,45.27,84,0,1.19
109,Chui,UY,Uruguay,South America,-33.7,-53.46,49.55,76,23,9.19
110,Galle,LK,Sri Lanka,Asia,6.04,80.22,78.71,85,69,10.65
111,Saint Paul Harbor,US,United States of America,North America,57.79,-152.41,50.2,89,100,34.47
112,Bonthe,SL,Sierra Leone,Africa,7.53,-12.51,77.9,87,21,5.57
113,Nikolskoye,RU,Russian Federation,Europe,59.7,30.79,52.63,87,83,2.24
114,Hurricane,US,United States of America,North America,37.18,-113.29,93,17,24,8.01
115,Poum,NC,New Caledonia,Oceania,-20.23,164.02,71.89,71,0,6.35
116,Les Ponts-de-CÃ©,FR,France,Europe,47.42,-0.52,60.12,93,26,2.24
117,Port Lincoln,AU,Australia,Oceania,-34.73,135.87,53.42,78,12,14.5
118,Santa Isabel Rio Negro,BR,Brazil,South America,-0.41,-65.02,77.4,92,82,1.68
119,Lagoa,PT,Portugal,Europe,39.05,-27.98,68.94,86,89,13.31
120,Warwick,US,United States of America,North America,41.7,-71.42,64.06,29,75,13.87
121,Svetlaya,RU,Russian Federation,Europe,46.54,138.33,56.64,79,87,6.62
122,Chapais,CA,Canada,North America,49.78,-74.85,62.6,48,1,12.75
123,GÃ¡ldar,ES,Spain,Europe,28.15,-15.65,75.45,69,20,23.04
124,Ponta do Sol,PT,Portugal,Europe,32.67,-17.1,73.78,69,20,8.05
125,Ormara,PK,Pakistan,Asia,25.21,64.64,87.15,39,56,8.43
126,Nioro,GM,Gambia,Africa,13.35,-15.75,77.09,84,3,5.95
127,Amahai,ID,Indonesia,Asia,-3.33,128.92,82.99,93,12,3.09
128,UrubichÃ¡,BO,Bolivia,South America,-15.38,-62.95,87.06,31,6,1.9
129,Nantucket,US,United States of America,North America,41.28,-70.1,61.41,42,1,28.86
130,Vakhrushev,RU,Russian Federation,Europe,48.98,142.97,52.14,77,85,1.99
131,Ambilobe,MG,Madagascar,Africa,-13.2,49.05,70.02,77,44,4.54
132,SÃ¼hbaatar,MN,Mongolia,Asia,50.23,106.21,39.49,72,18,2.64
133,AiligandÃ­,PA,Panama,North America,9.23,-78.02,81.73,81,99,6.13
134,Camrose,CA,Canada,North America,53.02,-112.84,64,38,11,1.99
135,Port Macquarie,AU,Australia,Oceania,-31.43,152.92,60.01,69,0,2.21
136,Chokurdakh,RU,Russian Federation,Europe,70.63,147.92,41.56,92,100,8.48
137,Sumbe,AO,Angola,Africa,-11.21,13.84,72.28,83,100,8.75
138,Kumul,CN,China,Asia,42.8,93.45,61.92,43,0,4.88
139,Adrar,MR,Mauritania,Africa,20.5,-10.07,97.88,15,20,8.97
140,Rocha,UY,Uruguay,South America,-34.48,-54.33,49.42,82,65,7
141,Faanui,PF,French Polynesia,Oceania,-16.48,-151.75,78.28,77,4,16.82
142,Ancud,CL,Chile,South America,-41.87,-73.82,55,71,14,1.01
143,College,US,United States of America,North America,64.86,-147.8,49.06,61,40,4.7
144,Khasan,RU,Russian Federation,Europe,42.43,130.64,56.46,86,11,2.28
145,Touros,BR,Brazil,South America,-5.2,-35.46,77,78,20,10.29
146,MÃ¥lÃ¸y,NO,Norway,Europe,61.94,5.11,55.94,82,75,29.97
147,Clyde River,CA,Canada,North America,70.47,-68.59,26.6,79,20,6.93
148,Arrondissement de Morlaix,FR,France,Europe,48.58,-4,61.52,93,28,11.41
149,Kavaratti,IN,India,Asia,10.57,72.64,81.57,79,57,22.39
150,Jackson,US,United States of America,North America,42.42,-122.83,76.55,38,1,5.82
151,BerlevÃ¥g,NO,Norway,Europe,70.86,29.09,42.13,93,75,13.87
152,Saint George,US,United States of America,North America,37.1,-113.58,92.88,16,1,12.75
153,Malakal,SS,South Sudan,Africa,9.53,31.66,74.91,85,98,2.53
154,Zhoucheng,CN,China,Asia,35.91,116.31,64.04,87,82,2.48
155,Cam Ranh,VN,Vietnam,Asia,11.92,109.16,80.6,88,40,3.36
156,LÃ¼deritz,NA,Namibia,Africa,-26.65,15.16,66.85,29,0,7.2
157,Isangel,VU,Vanuatu,Oceania,-19.55,169.27,77,61,20,5.82
158,Souillac,MU,Mauritius,Africa,-20.52,57.52,69.8,73,20,3.36
159,ShingÅ«,JP,Japan,Asia,33.73,135.98,69.69,89,100,21.21
160,Thompson,CA,Canada,North America,55.74,-97.86,55.4,71,75,11.41
161,Beloha,MG,Madagascar,Africa,-25.17,45.05,63.16,68,79,12.53
162,Port Elizabeth,ZA,South Africa,Africa,-33.92,25.57,53.6,71,0,4.7
163,Jonesboro,US,United States of America,North America,35.84,-90.7,62.91,93,90,9.17
164,SfÃ¢ntu Gheorghe,RO,Romania,Europe,45.87,25.78,50.41,73,0,2.71
165,Urucurituba,BR,Brazil,South America,-2.68,-57.67,88.29,50,84,1.12
166,Brownfield,US,United States of America,North America,33.18,-102.27,84.49,29,0,1.01
167,Geraldton,AU,Australia,Oceania,-28.77,114.6,50,93,0,8.05
168,Ketchikan,US,United States of America,North America,55.34,-131.65,54.3,76,90,5.82
169,Sur,OM,Oman,Asia,22.57,59.53,82.47,42,91,2.42
170,Husavik,IS,Iceland,Europe,66.04,-17.34,35.6,90,75,2.24
171,Cidreira,BR,Brazil,South America,-30.18,-50.21,57.97,71,0,16.67
172,Avarua,CK,Cook Islands,Oceania,-21.21,-159.78,78.8,88,54,11.41
173,Jumla,NP,Nepal,Asia,29.27,82.18,60.13,68,96,3.02
174,Provideniya,RU,Russian Federation,Europe,64.38,-173.3,42.8,75,1,2.24
175,Buala,SB,Solomon Islands,Oceania,-8.14,159.59,84.22,71,86,5.61
176,Kavkazskaya,RU,Russian Federation,Europe,45.45,40.67,59.61,67,0,9.13
177,Muros,ES,Spain,Europe,42.78,-9.06,66.2,88,95,11.99
178,San Cristobal,VE,Venezuela,South America,7.77,-72.22,91.4,46,40,9.17
179,Antalaha,MG,Madagascar,Africa,-14.9,50.28,67.15,81,0,6.73
180,Mehamn,NO,Norway,Europe,71.04,27.85,44.6,87,75,24.16
181,Barra de Tecoanapa,MX,Mexico,North America,16.52,-98.75,86.23,69,6,10.22
182,Brae,GB,United Kingdom of Great Britain and Northern Ireland,Europe,60.4,-1.35,51.8,93,100,19.46
183,Cumaral,CO,Colombia,South America,4.27,-73.49,89.6,49,20,5.82
184,Launceston,AU,Australia,Oceania,-41.45,147.17,48.11,81,90,17.22
185,Pantai Remis,MY,Malaysia,Asia,4.46,100.63,75.09,100,40,4.81
186,Assiniboia,CA,Canada,North America,49.63,-105.98,74.01,26,100,8.43
187,Marsala,IT,Italy,Europe,37.8,12.44,77,88,75,4.7
188,Nuuk,GL,Greenland,North America,64.18,-51.72,33.8,85,12,5.82
189,BÄrsi,IN,India,Asia,18.23,75.7,73.33,90,100,7.31
190,Arraial do Cabo,BR,Brazil,South America,-22.97,-42.03,66.2,93,90,16.11
191,Batticaloa,LK,Sri Lanka,Asia,7.71,81.69,81.05,68,57,6.26
192,Codrington,AU,Australia,Oceania,-38.27,141.97,50.52,85,94,11.86
193,Hai Duong,VN,Vietnam,Asia,20.93,106.32,78.12,94,75,6.93
194,Gizo Government Station,SB,Solomon Islands,Oceania,-8.1,156.84,83.34,72,30,7.05
195,Mackay,AU,Australia,Oceania,-21.15,149.2,68,100,31,1.12
196,Torbay,CA,Canada,North America,47.67,-52.73,51.26,87,90,14.99
197,ManicorÃ©,BR,Brazil,South America,-5.81,-61.3,81.07,75,86,4.29
198,Porto-Novo,BJ,Benin,Africa,6.5,2.6,80.6,83,40,9.17
199,Gogrial,SS,South Sudan,Africa,8.53,28.1,73.8,89,0,3.29
200,TranÃ¥s,SE,Sweden,Europe,58.04,14.98,51.22,81,2,4.7
201,Mandalgovi,MN,Mongolia,Asia,45.76,106.27,49.51,46,0,6.82
202,Kaitangata,NZ,New Zealand,Oceania,-46.28,169.85,52.47,84,73,4.63
203,Tonstad,NO,Norway,Europe,58.66,6.72,55.29,95,99,3
204,Kuytun,RU,Russian Federation,Europe,54.34,101.5,37.24,84,35,6.6
205,Haileybury,CA,Canada,North America,47.45,-79.64,69.8,64,90,11.41
206,SÃ©mbÃ©,CG,Congo,Africa,1.65,14.58,70.86,93,100,2.68
207,San MatÃ­as,BO,Bolivia,South America,-16.37,-58.4,83.35,45,70,5.12
208,Corrente,BR,Brazil,South America,-3.74,-43.34,83.34,59,43,8.55
209,KÄzerÅ«n,IR,Islamic Republic of Iran,Asia,29.62,51.65,77.16,18,0,8.28
210,MahÃ©bourg,MU,Mauritius,Africa,-20.41,57.7,69.8,73,20,3.36
211,Arkhangelsk,RU,Russian Federation,Europe,64.54,40.54,50,61,40,20.13
212,Cayenne,GF,French Guiana,South America,4.93,-52.33,84.2,74,6,10.29
213,Khani,GE,Georgia,Asia,41.96,42.96,66.2,77,54,5.82
214,Sokolovyy,RU,Russian Federation,Europe,51.57,45.83,62.01,42,12,7
215,Haines Junction,CA,Canada,North America,60.75,-137.51,49.53,59,100,3.31
216,San Juan,AR,Argentina,South America,-31.54,-68.54,78.35,17,0,12.08
217,Whitehorse,CA,Canada,North America,60.72,-135.05,51.8,53,75,9.17
218,Tual,ID,Indonesia,Asia,-5.67,132.75,80.87,79,76,18.01
219,Levice,SK,Slovakia,Europe,48.22,18.61,65.98,62,0,1.01
220,Basco,PH,Philippines,Asia,20.45,121.97,82.15,75,78,14.9
221,Muriwai Beach,NZ,New Zealand,Oceania,-36.82,174.45,61.66,80,74,5.99
222,Fortuna,US,United States of America,North America,40.6,-124.16,66.67,72,1,11.41
223,Isaka,TZ,United Republic of Tanzania,Africa,-3.9,32.93,77.05,41,98,5.32
224,BrÃ¸nnÃ¸ysund,NO,Norway,Europe,65.46,12.2,50,76,100,4.7
225,Barrow,US,United States of America,North America,71.29,-156.79,35.6,74,90,13.87
226,Tazovsky,RU,Russian Federation,Europe,67.47,78.7,40.84,88,99,9.4
227,Tuatapere,NZ,New Zealand,Oceania,-46.13,167.68,55,84,34,8.01
228,Kieta,PG,Papua New Guinea,Oceania,-6.22,155.63,82.62,67,100,3.87
229,Vostok,RU,Russian Federation,Europe,46.49,135.88,45.63,95,93,3.36
230,Tashtyp,RU,Russian Federation,Europe,52.79,89.9,46.6,86,100,2.55
231,Ilulissat,GL,Greenland,North America,69.22,-51.1,26.6,68,50,5.08
232,Volterra,IT,Italy,Europe,43.4,10.86,65.64,92,90,1.01
233,Dhidhdhoo,MV,Maldives,Asia,6.88,73.1,82.04,77,100,17.52
234,Shevchenko,UA,Ukraine,Europe,48.5,35,55.2,47,0,2.57
235,Sinnamary,GF,French Guiana,South America,5.38,-52.95,80.47,80,5,15.46
236,De Aar,ZA,South Africa,Africa,-30.65,24.01,60.6,28,0,9.91
237,Eucaliptus,BO,Bolivia,South America,-17.58,-67.52,56.1,27,0,10.02
238,Belmonte,BR,Brazil,South America,-15.86,-38.88,77,78,75,10.29
239,Kerrville,US,United States of America,North America,30.05,-99.14,77.45,65,90,9.17
240,Changying,CN,China,Asia,52.87,123.32,45.82,93,100,7.31
241,Bethel,US,United States of America,North America,41.37,-73.41,65.25,28,1,11.41
242,Mwaro Province,BI,Burundi,Africa,-3.5,29.67,58.86,80,18,2.82
243,Coyhaique,CL,Chile,South America,-45.58,-72.07,50,46,40,9.17
244,Moshny,UA,Ukraine,Europe,49.51,31.75,54.41,41,0,4.9
245,Talaya,RU,Russian Federation,Europe,61.38,152.75,34.99,76,0,2.15
246,GurupÃ¡,BR,Brazil,South America,-1.41,-51.64,84.65,62,89,3.91
247,Goulburn,AU,Australia,Oceania,-34.75,149.72,53.01,65,0,21.81
248,Makarov,RU,Russian Federation,Europe,48.63,142.8,54.07,76,71,3.56
249,Calabozo,VE,Venezuela,South America,8.92,-67.43,82.62,82,99,2.89
250,Tela,HN,Honduras,North America,15.78,-87.45,89.6,70,40,4.7
251,La Ronge,CA,Canada,North America,55.1,-105.28,55.4,54,75,8.05
252,RÄjÄpur,IN,India,Asia,25.38,81.15,78.73,93,100,5.82
253,Uspenka,UA,Ukraine,Europe,48.39,39.16,55.18,39,18,1.81
254,Tezu,IN,India,Asia,27.92,96.17,73.96,86,100,3.02
255,Tigil',RU,Russian Federation,Europe,57.8,158.67,41.54,74,5,3.2
256,GÃ¶rele,TR,Turkey,Europe,41.03,39,71.6,78,75,3.36
257,Mizunami,JP,Japan,Asia,35.37,137.25,71.01,87,100,2.33
258,Polyarny,RU,Russian Federation,Europe,69.2,33.45,41,86,75,4.47
259,Kayerkan,RU,Russian Federation,Europe,69.35,87.76,48.2,93,75,15.66
260,Soledad,CO,Colombia,South America,10.92,-74.76,89.6,59,20,8.05
261,Zyryanka,RU,Russian Federation,Europe,65.75,150.85,39.43,88,80,5.35
262,RepatriaciÃ³n,PY,Paraguay,South America,-25.53,-55.95,70.63,48,0,3.49
263,Kimbe,PG,Papua New Guinea,Oceania,-5.55,150.14,81.59,74,99,2.91
264,Port Blair,IN,India,Asia,11.67,92.75,82.24,80,100,6.04
265,Sibu,MY,Malaysia,Asia,2.3,111.82,75.07,100,20,3.36
266,Tocopilla,CL,Chile,South America,-22.09,-70.2,67.15,50,18,6.64
267,Zatoka,UA,Ukraine,Europe,46.07,30.47,50,76,0,4.88
268,Oro Valley,US,United States of America,North America,32.39,-110.97,95.43,19,2,3
269,Salinas,US,United States of America,North America,36.68,-121.66,70.09,53,1,14.99
270,SÃ£o JosÃ© da Coroa Grande,BR,Brazil,South America,-8.9,-35.15,74.79,82,5,8.63
271,Shiyan,CN,China,Asia,32.65,110.78,57.58,88,77,4.05
272,Andenes,NO,Norway,Europe,69.31,16.12,41,86,95,17.22
273,Qandala,SO,Somalia,Africa,11.47,49.87,89.04,52,81,3.33
274,Barranca,PE,Peru,South America,-10.75,-77.77,62.96,77,20,7.23
275,Mlonggo,ID,Indonesia,Asia,-6.53,110.7,77.68,80,100,11.86
276,Khatanga,RU,Russian Federation,Europe,71.97,102.5,45.64,72,67,15.12
277,Tura,IN,India,Asia,25.52,90.22,73.44,98,100,4.29
278,TomatlÃ¡n,MX,Mexico,North America,19.93,-105.25,88.81,63,4,10.65
279,Dicabisagan,PH,Philippines,Asia,17.08,122.42,78.62,81,90,4.92
280,Mareeba,AU,Australia,Oceania,-17,145.43,71.1,78,40,4.7
281,Lenine,UA,Ukraine,Europe,45.3,35.78,64.11,58,0,10.33
282,Cherskiy,RU,Russian Federation,Europe,68.75,161.3,36.09,83,100,4.76
283,Gijang,KR,Republic of Korea,Asia,35.24,129.21,66.2,68,75,10.29
284,Itoman,JP,Japan,Asia,26.12,127.67,79,83,75,6.93
285,NicolÃ¡s Bravo,MX,Mexico,North America,18.45,-88.92,87.8,70,40,12.75
286,PalÄsa,IN,India,Asia,18.77,84.42,79.11,86,47,9.42
287,Kavieng,PG,Papua New Guinea,Oceania,-2.57,150.8,84.2,66,100,8.99
288,Baculin,PH,Philippines,Asia,7.45,126.58,79.59,77,100,4.9
289,Tiquisate,GT,Guatemala,North America,14.28,-91.37,79.45,66,40,6.93
290,Porosozero,RU,Russian Federation,Europe,62.72,32.73,39,83,70,6.15
291,Lorengau,PG,Papua New Guinea,Oceania,-2.02,147.27,83.17,77,91,8.93
292,Timizart,DZ,Algeria,Africa,36.8,4.27,69.66,60,94,2.04
293,Carnarvon,AU,Australia,Oceania,-24.87,113.63,53.6,58,0,10.29
294,Hamilton,US,United States of America,North America,39.18,-84.53,73.96,40,1,4.7
295,San Luis,AR,Argentina,South America,-33.3,-66.34,69.69,23,36,3.56
296,Jacareacanga,BR,Brazil,South America,-6.22,-57.75,84.11,63,91,3.18
297,SÃ£o Filipe,CV,Cape Verde,Africa,14.9,-24.5,80.65,81,10,6.62
298,MontluÃ§on,FR,France,Europe,46.33,2.6,55,98,100,5.03
299,YÄrÄda,IN,India,Asia,17.65,83.27,80.6,94,75,2.24
300,Porto Walter,BR,Brazil,South America,-8.27,-72.74,79.88,86,99,2.08
301,CamanÃ¡,PE,Peru,South America,-16.62,-72.71,63.19,73,55,6.24
302,Susaki,JP,Japan,Asia,33.37,133.28,73.4,69,75,11.41
303,Dukat,RU,Russian Federation,Europe,62.55,155.55,32.2,86,0,2.59
304,Vestmannaeyjar,IS,Iceland,Europe,63.44,-20.27,43.56,67,95,13.67
305,Bima,ID,Indonesia,Asia,-8.47,118.72,74.1,86,21,4.34
306,Nanortalik,GL,Greenland,North America,60.14,-45.24,37.65,74,0,11.41
307,Dingle,PH,Philippines,Asia,11,122.67,75.94,88,66,1.36
308,Harlingen,US,United States of America,North America,26.19,-97.7,89.22,55,75,11.41
309,Sitka,US,United States of America,North America,57.05,-135.33,57.2,58,90,20.8
310,Kharabali,RU,Russian Federation,Europe,47.42,47.26,55,64,0,5.48
311,Gamba,GA,Gabon,Africa,-2.65,10,74.77,87,100,7.96
312,Palmer,US,United States of America,North America,42.16,-72.33,64.96,26,75,20.8
313,Hobyo,SO,Somalia,Africa,5.35,48.53,77.76,81,100,25.05
314,Vao,NC,New Caledonia,Oceania,-22.67,167.48,70.27,80,3,12.8
315,Reconquista,AR,Argentina,South America,-29.15,-59.65,62.44,55,0,8.25
316,Ossora,RU,Russian Federation,Europe,59.24,163.07,43.29,64,0,3.04
317,Yilan,TW,Taiwan,Asia,24.76,121.75,74.41,78,20,6.93
318,MasallÄtah,LY,Libyan Arab Jamahiriya,Africa,32.62,14,80.94,50,5,20.98
319,Acapulco de JuÃ¡rez,MX,Mexico,North America,16.86,-99.89,87.8,70,20,12.75
320,Zvishavane,ZW,Zimbabwe,Africa,-20.33,30.07,56.79,78,38,6.17
321,Goderich,CA,Canada,North America,43.75,-81.72,72.45,46,75,10.45
322,Sikonge,TZ,United Republic of Tanzania,Africa,-5.63,32.77,73.4,53,20,5.82
323,San Fernando del Valle de Catamarca,AR,Argentina,South America,-28.47,-65.79,79,22,0,8.01
324,Sokolo,ML,Mali,Africa,14.73,-6.12,81.54,62,78,16.04
325,Novaya Bryanâ€™,RU,Russian Federation,Europe,51.72,108.27,30.2,92,0,1.41
326,Polovinnoye,RU,Russian Federation,Europe,54.79,65.99,41.47,80,100,14.83
327,Tiksi,RU,Russian Federation,Europe,71.69,128.87,41.65,75,35,19.33
328,Nyurba,RU,Russian Federation,Europe,63.28,118.33,40.15,84,0,4.03
329,Nogales,MX,Mexico,North America,31.31,-110.94,86.97,30,1,10.29
330,Vysokogornyy,RU,Russian Federation,Europe,50.12,139.15,42.94,89,0,1.81
331,Jiazi,CN,China,Asia,22.88,116.07,77.31,87,45,6.31
332,SkjervÃ¸y,NO,Norway,Europe,70.03,20.97,44.6,75,75,18.34
333,Nipawin,CA,Canada,North America,53.37,-104,66.2,39,1,12.75
334,Hurghada,EG,Egypt,Africa,27.26,33.81,87.8,27,0,8.05
335,Killybegs,IE,Ireland,Europe,54.63,-8.45,48.99,95,100,5.01
336,Laas,IT,Italy,Europe,46.62,10.7,57.2,100,75,4.7
337,Naze,JP,Japan,Asia,28.37,129.48,79.66,88,20,17.22
338,Takhli,TH,Thailand,Asia,15.26,100.34,75.54,94,100,3.22
339,Alugan,PH,Philippines,Asia,12.22,125.48,77.65,87,76,3.58
340,Morehead,US,United States of America,North America,37.27,-87.18,67.86,55,1,3.24
341,Oranjemund,NA,Namibia,Africa,-28.55,16.43,66.15,27,0,10.07
342,Niamtougou,TG,Togo,Africa,9.77,1.11,73.4,100,75,4.7
343,Kiryat Gat,IL,Israel,Asia,31.61,34.76,75.72,71,2,3.56
344,Kahului,US,United States of America,North America,20.89,-156.47,84.56,38,40,16.11
345,SawÄkin,SD,Sudan,Africa,19.11,37.33,90.55,39,0,8.3
346,Puerto Ayacucho,VE,Venezuela,South America,5.66,-67.62,80.6,78,40,6.93
347,Bridgetown,BB,Barbados,North America,13.1,-59.62,87.8,66,40,10.29
348,Marsh Harbour,BS,Bahamas,North America,26.54,-77.06,79.88,70,11,20.45
349,Arlit,NE,Niger,Africa,18.74,7.39,95.49,15,0,9.17
350,Nacala,MZ,Mozambique,Africa,-14.54,40.67,72.03,87,0,10.4
351,Lompoc,US,United States of America,North America,34.64,-120.46,65.68,72,1,16.11
352,Havelock,US,United States of America,North America,34.88,-76.9,69.8,40,1,10.29
353,NajrÄn,SA,Saudi Arabia,Asia,17.49,44.13,82.4,14,86,4.7
354,Yamoto,JP,Japan,Asia,38.43,141.21,66.2,88,75,5.82
355,Northam,GB,United Kingdom of Great Britain and Northern Ireland,Europe,51.03,-4.22,59.34,94,91,5.01
356,Bulata,PH,Philippines,Asia,9.86,122.4,82.15,75,89,3.09
357,Tilichiki,RU,Russian Federation,Europe,60.47,166.1,39.04,73,1,5.64
358,Watsa,CD,"Congo, Democratic Republic of the",Africa,3.04,29.54,64.38,99,0,2.06
359,Aklavik,CA,Canada,North America,68.22,-135.01,41,86,75,1.88
360,Katsuura,JP,Japan,Asia,35.13,140.3,69.26,100,75,6.93
361,Hofn,IS,Iceland,Europe,64.25,-15.21,40.3,65,0,10.63
362,Ojinaga,MX,Mexico,North America,29.57,-104.42,85.55,28,1,4.7
363,Maningrida,AU,Australia,Oceania,-12.07,134.27,75.6,78,0,7.61
364,Sakakah,SA,Saudi Arabia,Asia,29.97,40.21,89.6,13,0,10.29
365,AsÄƒu,RO,Romania,Europe,46.43,26.4,54,83,17,3.36
366,Dalby,AU,Australia,Oceania,-27.18,151.27,70,60,98,4.61
367,Guymon,US,United States of America,North America,36.68,-101.48,84.2,32,1,9.17
368,MeÃ¯ganga,CM,Cameroon,Africa,6.52,14.3,67.6,91,98,2.35
369,BidhÅ«na,IN,India,Asia,26.8,79.51,79.75,82,100,7.27
370,Burkburnett,US,United States of America,North America,34.1,-98.57,72.41,78,90,9.17
371,Safaga,EG,Egypt,Africa,26.73,33.94,87.8,27,0,8.05
372,Brownsville,US,United States of America,North America,25.9,-97.5,89.37,52,20,6.93
373,Suluova,TR,Turkey,Europe,40.83,35.65,60.8,72,0,0.22
374,Wilmington,US,United States of America,North America,34.23,-77.94,70.9,40,1,6.93
375,Illapel,CL,Chile,South America,-31.63,-71.17,73.58,36,92,4.88
376,Hualmay,PE,Peru,South America,-11.1,-77.61,64.4,74,18,8.63
377,RÃ­o Gallegos,AR,Argentina,South America,-51.62,-69.22,53.6,37,20,25.28
378,Makkah al Mukarramah,SA,Saudi Arabia,Asia,21.43,39.83,87.84,16,0,6.17
379,Vasai,IN,India,Asia,19.47,72.8,77,100,90,9.17
380,LinkÃ¶ping,SE,Sweden,Europe,58.41,15.62,51.57,76,14,4.7
381,TignÃ¨re,CM,Cameroon,Africa,7.37,12.65,65.37,94,36,2.17
382,Council Bluffs,US,United States of America,North America,41.26,-95.86,81.84,39,20,12.75
383,Kaa-Khem,RU,Russian Federation,Europe,51.68,94.73,49.68,61,28,4.61
384,AswÄn,EG,Egypt,Africa,24.09,32.91,91.02,21,0,14.16
385,Bathsheba,BB,Barbados,North America,13.22,-59.52,87.8,66,40,10.29
386,Cabedelo,BR,Brazil,South America,-6.98,-34.83,77,83,20,9.17
387,KuÄevo,RS,Serbia,Europe,44.48,21.67,73.99,40,51,3
388,Bambanglipuro,ID,Indonesia,Asia,-7.95,110.28,75.4,88,43,4.09
389,Alofi,NU,Niue,Oceania,-19.06,-169.92,68,88,90,8.05
390,Kitimat,CA,Canada,North America,54.05,-128.65,54,89,100,1.3
391,Lamesa,US,United States of America,North America,32.74,-101.95,84.13,21,75,3.36
392,Elizabeth City,US,United States of America,North America,36.29,-76.25,68.9,40,1,10.29
393,ZanjÄn,IR,Islamic Republic of Iran,Asia,36.67,48.48,57.11,76,32,8.5
394,Kamen'-na-Obi,RU,Russian Federation,Europe,53.79,81.34,45.27,68,99,5.12
395,MiÄ™dzyrzecz,PL,Poland,Europe,52.44,15.58,64.04,37,0,6.6
396,Kununurra,AU,Australia,Oceania,-15.77,128.73,77,88,0,5.82
397,Pisco,PE,Peru,South America,-13.7,-76.22,64.65,77,6,10.29
398,Weston,US,United States of America,North America,26.1,-80.4,83.95,54,40,16.11
399,Rehoboth,NA,Namibia,Africa,-23.32,17.08,59.13,30,2,3.02
400,Laguna,US,United States of America,North America,38.42,-121.42,87.48,28,1,6.93
401,Thunder Bay,CA,Canada,North America,48.4,-89.32,77,36,20,9.17
402,Orkney,ZA,South Africa,Africa,-26.98,26.67,58.89,58,8,10.63
403,Vaitape,PF,French Polynesia,Oceania,-16.52,-151.75,79.12,75,6,16.82
404,Minzhu,CN,China,Asia,43.73,127.34,53.24,92,95,2.86
405,Cerro Largo,BR,Brazil,South America,-28.15,-54.74,73.4,46,0,8.05
406,Shimoda,JP,Japan,Asia,34.67,138.95,63,96,100,1.99
407,Huarmey,PE,Peru,South America,-10.07,-78.15,65.17,73,7,8.55
408,Chihuahua,MX,Mexico,North America,28.5,-106,86,15,5,8.05
409,Lloydminster,CA,Canada,North America,53.28,-110,62.6,33,40,8.05
410,Hasaki,JP,Japan,Asia,35.73,140.83,68.29,94,75,10.29
411,Tehri,IN,India,Asia,30.38,78.48,70.79,74,1,2.62
412,Kaspiysk,RU,Russian Federation,Europe,42.88,47.64,62.6,82,20,4.47
413,Lac du Bonnet,CA,Canada,North America,50.25,-96.06,83.52,42,51,7
414,Vic,ES,Spain,Europe,41.93,2.25,58.44,93,98,0.56
415,Mujiayingzi,CN,China,Asia,42.12,118.78,50.45,61,97,3.89
416,Genhe,CN,China,Asia,50.78,121.52,43.68,93,100,4.07
417,Santa RosalÃ­a,MX,Mexico,North America,27.32,-112.28,89.13,55,0,9.44
418,Merritt Island,US,United States of America,North America,28.54,-80.67,80.19,65,90,8.05
419,Usinsk,RU,Russian Federation,Europe,65.99,57.53,39.38,98,100,6.73
420,Lipin Bor,RU,Russian Federation,Europe,60.26,37.98,48.36,80,90,10.31
421,Alice Springs,AU,Australia,Oceania,-23.7,133.88,53.6,32,0,8.05
422,Gachsaran,IR,Islamic Republic of Iran,Asia,30.36,50.8,80.6,34,0,4.74
423,Fairview,US,United States of America,North America,40.81,-74,71.51,28,1,5.82
424,Bone,DE,Germany,Europe,51.97,12.14,60.31,85,0,4.25
425,Pooler,US,United States of America,North America,32.12,-81.25,75.15,44,75,2.93
426,Melfort,CA,Canada,North America,52.87,-104.62,66.2,39,1,12.75
427,Synya,RU,Russian Federation,Europe,65.37,58.04,37.8,97,100,4.41
428,Mayo,US,United States of America,North America,38.89,-76.51,68.83,37,1,8.05
429,Thinadhoo,MV,Maldives,Asia,0.53,72.93,82.04,68,28,7.76
430,Te Anau,NZ,New Zealand,Oceania,-45.42,167.72,54.19,82,33,6.15
431,Atar,MR,Mauritania,Africa,20.52,-13.05,95.13,28,0,5.06
432,Vredendal,ZA,South Africa,Africa,-31.67,18.5,62.15,38,0,4.34
433,Esso,RU,Russian Federation,Europe,55.93,158.7,39.61,74,99,0.43
434,Dakar,SN,Senegal,Africa,14.69,-17.44,82.4,88,75,9.17
435,Ferrol,ES,Spain,Europe,43.48,-8.24,62.46,93,40,10.29
436,Aasiaat,GL,Greenland,North America,68.71,-52.87,21.27,96,74,3.94
437,ÃœrÃ¼mqi,CN,China,Asia,43.8,87.6,60.8,36,0,8.95
438,Villarrica,PY,Paraguay,South America,-25.75,-56.43,69.13,38,0,5.01
439,Dahuk,IQ,Iraq,Asia,36.87,42.99,70.34,29,0,1.39
440,Kagoro,NG,Nigeria,Africa,9.6,8.38,68.63,95,1,1.34
441,Kruisfontein,ZA,South Africa,Africa,-34,24.73,49.66,85,0,3.02
442,Lavrentiya,RU,Russian Federation,Europe,65.58,-171,39.58,86,90,7.2
443,Luanda,AO,Angola,Africa,-8.84,13.23,73.4,88,20,8.05
444,Deputatsky,RU,Russian Federation,Europe,69.3,139.9,35.87,91,83,4.61
445,Grand Forks,US,United States of America,North America,47.93,-97.03,86,23,1,11.41
446,SÅ«sangerd,IR,Islamic Republic of Iran,Asia,31.56,48.18,82.4,37,0,2.24
447,Sedona,US,United States of America,North America,34.87,-111.76,79.52,24,40,9.17
448,Tarakan,ID,Indonesia,Asia,3.3,117.63,79.74,81,100,7.92
449,Oranjestad,AW,Aruba,North America,12.52,-70.03,87.8,74,20,17.22
450,GulariyÄ,NP,Nepal,Asia,28.23,81.33,80.01,73,100,1.99
451,Yeppoon,AU,Australia,Oceania,-23.13,150.73,75.2,78,90,3.36
452,OmbouÃ©,GA,Gabon,Africa,-1.57,9.26,75.31,83,99,8.68
453,Gornyy,RU,Russian Federation,Europe,55.12,83.91,43.5,73,100,6.22
454,Channel-Port aux Basques,CA,Canada,North America,47.57,-59.14,50.85,90,100,33.42
455,Bubaque,GW,Guinea-Bissau,Africa,11.28,-15.83,81.28,81,0,11.59
456,Kasongo-Lunda,CD,"Congo, Democratic Republic of the",Africa,-6.47,16.82,75.74,68,6,0.56
457,Kassala,SD,Sudan,Africa,15.45,36.4,85.6,48,0,10.29
458,Westport,US,United States of America,North America,41.14,-73.36,67.35,15,1,24.16
459,Terney,RU,Russian Federation,Europe,45.05,136.61,55.15,78,87,5.48
460,Puerto Lempira,HN,Honduras,North America,15.27,-83.77,89.6,62,40,8.05
461,Ust-Maya,RU,Russian Federation,Europe,60.42,134.53,39.61,73,0,1.48
462,Aquitania,CO,Colombia,South America,5.52,-72.89,52.72,93,82,4.41
463,Gulu,UG,Uganda,Africa,2.77,32.3,64.54,97,23,2.82
464,Dryden,CA,Canada,North America,49.78,-92.75,71.6,40,1,10.29
465,Sarakhs,IR,Islamic Republic of Iran,Asia,36.54,61.16,62.6,42,0,2.24
466,FukuechÅ,JP,Japan,Asia,32.69,128.84,74.08,81,15,23.94
467,Merauke,ID,Indonesia,Asia,-8.47,140.33,79.93,76,100,12.12
468,Ledyard Center,US,United States of America,North America,41.44,-72.01,65.98,22,1,16.11
469,Yulara,AU,Australia,Oceania,-25.24,130.99,53.6,47,0,8.05
470,Champerico,GT,Guatemala,North America,14.3,-91.92,78.87,66,40,6.93
471,MaripÃ­,CO,Colombia,South America,5.55,-74.01,73.36,76,83,1.23
472,Eatonton,US,United States of America,North America,33.33,-83.39,71.65,67,87,2.48
473,Cockburn Town,TC,Turks and Caicos Islands,North America,21.46,-71.14,82.4,74,40,6.93
474,Kholmogory,RU,Russian Federation,Europe,64.22,41.66,50,61,40,20.13
475,Santo Tomas,PH,Philippines,Asia,14.11,121.14,79.47,88,40,1.74
476,Wattegama,LK,Sri Lanka,Asia,6.8,81.48,77,100,75,5.82
477,Linxia Chengguanzhen,CN,China,Asia,35.6,103.21,53.73,71,79,0.16
478,KirkenÃ¦r,NO,Norway,Europe,60.46,12.06,53.1,72,78,4
479,Camiri,BO,Bolivia,South America,-20.05,-63.52,74.03,29,0,4.88
480,Sechura,PE,Peru,South America,-5.56,-80.82,73,57,10,15.97
481,Talavera,PH,Philippines,Asia,15.62,120.93,77,94,75,2.24
482,Key Largo,US,United States of America,North America,25.09,-80.45,83.3,1,8,7
483,Katobu,ID,Indonesia,Asia,-4.94,122.53,75.18,92,96,2.44
484,Kuningan,ID,Indonesia,Asia,-6.98,108.48,69.73,93,95,6.71
485,Soyo,AO,Angola,Africa,-6.13,12.37,74.28,81,81,8.86
486,Belaya Gora,RU,Russian Federation,Europe,68.53,146.42,43.63,81,97,5.44
487,Flinders,AU,Australia,Oceania,-34.58,150.86,62.42,56,0,4
488,Egvekinot,RU,Russian Federation,Europe,66.32,-179.17,40.21,68,0,1.32
489,Gallup,US,United States of America,North America,35.53,-108.74,75.9,23,40,9.17
490,Salta,AR,Argentina,South America,-24.79,-65.41,75.2,17,0,13.87
491,Hibbing,US,United States of America,North America,47.43,-92.94,75.97,31,1,4.29
492,Erenhot,CN,China,Asia,43.65,111.98,53.91,42,43,4.5
493,Coquimbo,CL,Chile,South America,-29.95,-71.34,55.4,87,75,12.75
494,Arrecife,ES,Spain,Europe,28.96,-13.55,75.2,78,20,13.87
495,Richards Bay,ZA,South Africa,Africa,-28.78,32.04,60.01,77,0,9.31
496,Dubai,AE,United Arab Emirates,Asia,25.26,55.3,88.45,70,0,2.24
497,Grimshaw,CA,Canada,North America,56.18,-117.6,60.8,41,75,4.7
498,TvÃ¸royri,FO,Faroe Islands,Europe,61.56,-6.81,41,86,100,5.82
499,Araouane,ML,Mali,Africa,18.9,-3.53,98.42,17,12,7.78
500,Abbeville,FR,France,Europe,50.1,1.83,57.47,79,62,7.16
501,Evensk,RU,Russian Federation,Europe,61.95,159.23,42.46,60,0,4.68
502,Bangassou,CF,Central African Republic,Africa,4.74,22.82,70.43,95,86,0.81
503,San Isidro,PE,Peru,South America,-12.12,-77.05,64.94,68,40,9.17
504,AtasÅ«,KZ,Kazakhstan,Asia,48.68,71.64,42.55,76,59,11.81
505,Klerksdorp,ZA,South Africa,Africa,-26.85,26.67,56.91,62,3,11.74
506,Toamasina,MG,Madagascar,Africa,-18.17,49.38,66.2,93,40,4.7
507,Sokoni,TZ,United Republic of Tanzania,Africa,-6.43,39.55,77.5,78,40,18.34
508,Zonguldak,TR,Turkey,Europe,41.25,31.83,57.83,91,0,2.42
509,Fillan,NO,Norway,Europe,63.61,8.97,50,93,75,9.17
510,Avera,US,United States of America,North America,33.19,-82.53,69.28,53,1,2.75
511,Pilar,BR,Brazil,South America,-9.6,-35.96,73.4,88,21,6.93
512,MandalÄ«,IQ,Iraq,Asia,33.75,45.55,88.12,15,0,10.56
513,Kysyl-Syr,RU,Russian Federation,Europe,63.9,122.76,39.2,86,0,2.26
514,Chardara,KZ,Kazakhstan,Asia,41.25,67.97,54.27,41,8,10.18
515,Petro-Slavyanka,RU,Russian Federation,Europe,59.8,30.51,52,93,86,2.24
516,Laem Sing,TH,Thailand,Asia,12.48,102.07,82.99,69,100,4.56
517,UmeÃ¥,SE,Sweden,Europe,63.83,20.26,46.4,93,90,3.36
518,Tottori-shi,JP,Japan,Asia,35.5,134.23,66.2,88,75,4.7
519,Fairbanks,US,United States of America,North America,64.84,-147.72,48.85,65,1,4.7
520,Mogzon,RU,Russian Federation,Europe,51.74,111.96,30.61,97,43,2.17
521,Sioux Lookout,CA,Canada,North America,50.1,-91.92,71.6,49,20,4.7
522,CaarapÃ³,BR,Brazil,South America,-22.63,-54.82,70.65,65,2,5.06
523,Kristiansund,NO,Norway,Europe,63.11,7.73,48.2,93,75,12.75
524,Turukhansk,RU,Russian Federation,Europe,65.82,87.98,46.2,82,100,11.48
525,Grand-Lahou,CI,Côte d'Ivoire,Africa,5.14,-5.02,74.79,90,60,9.57
526,Gainesville,US,United States of America,North America,29.65,-82.32,79.39,54,20,14.99
527,Belaya Kholunitsa,RU,Russian Federation,Europe,58.84,50.85,45.14,92,89,7.65
528,Grants,US,United States of America,North America,35.15,-107.85,78.8,24,1,14.99
529,PalamÃ³s,ES,Spain,Europe,41.85,3.13,63.72,41,73,7.16
530,Ranong,TH,Thailand,Asia,9.97,98.63,78.66,84,100,1.7
531,Ayagoz,KZ,Kazakhstan,Asia,47.97,80.44,47.59,47,100,8.81
532,Poya,NC,New Caledonia,Oceania,-21.35,165.15,75.04,57,0,4.09
533,Laramie,US,United States of America,North America,41.31,-105.59,74.25,13,75,16.11
534,Ã–rnskÃ¶ldsvik,SE,Sweden,Europe,63.29,18.72,46.4,87,100,5.82
535,Santa Rita,BR,Brazil,South America,-7.11,-34.98,77,83,20,9.17
536,Nieuw Amsterdam,SR,Suriname,South America,5.88,-55.08,86.88,62,40,6.93
537,Paracuru,BR,Brazil,South America,-3.41,-39.03,79,74,0,20
538,Stokmarknes,NO,Norway,Europe,68.56,14.91,42.8,70,20,3.36
539,Kabare,CD,"Congo, Democratic Republic of the",Africa,-2.47,28.82,62.35,75,12,1.25
540,Nome,US,United States of America,North America,64.5,-165.41,47.44,61,75,11.83
541,Qasigiannguit,GL,Greenland,North America,68.82,-51.19,26.6,68,64,2.48
542,Smithers,CA,Canada,North America,54.78,-127.17,57.2,62,75,8.05
543,Portland,US,United States of America,North America,45.52,-122.68,72.61,56,40,4.7
544,Gokak,IN,India,Asia,16.17,74.83,70.54,89,96,12.75
545,Anadyr,RU,Russian Federation,Europe,64.75,177.48,37.4,93,38,13.42
546,Clarence Town,AU,Australia,Oceania,-32.58,151.78,58.77,55,0,17.22
547,Bykovo,RU,Russian Federation,Europe,55.64,38.08,55.92,82,0,6.71
548,Nelson,NZ,New Zealand,Oceania,-41.28,173.28,57,96,95,5.01
549,Baykit,RU,Russian Federation,Europe,61.67,96.37,42.91,85,100,4
550,Mumford,GH,Ghana,Africa,5.26,-0.76,75.45,88,50,14.23
551,Trincomalee,LK,Sri Lanka,Asia,8.57,81.23,81.14,76,65,18.97
552,Igarka,RU,Russian Federation,Europe,67.47,86.58,47.98,86,100,12.19
553,Santa Helena de GoiÃ¡s,BR,Brazil,South America,-17.81,-50.6,69.6,77,88,12.17
554,Grand Gaube,MU,Mauritius,Africa,-20.01,57.66,66.99,75,16,3
555,Rey Bouba,CM,Cameroon,Africa,8.67,14.18,75.15,84,74,2.53
556,Bartica,GY,Guyana,South America,6.4,-58.62,87.8,62,40,11.41
557,Raton,US,United States of America,North America,36.9,-104.44,60.03,55,39,7.85
558,Boa Vista,BR,Brazil,South America,2.82,-60.67,93.2,46,40,8.05
559,Sirte,LY,Libyan Arab Jamahiriya,Africa,31.21,16.59,76.86,64,0,15.84
560,Solnechnyy,RU,Russian Federation,Europe,50.72,136.63,46.94,77,18,2.01
561,Lakatoro,VU,Vanuatu,Oceania,-16.1,167.42,77,83,75,8.05
